ATLAS CENTAUR 2         
1 00694U 63047A   26069.32516960  .00001991  00000+0  23364-3 0  9994
2 00694  30.3510 192.0905 0547744  85.8862 280.4124 14.12069936131712
THOR AGENA D R/B        
1 00733U 64002A   26069.01057468  .00000272  00000+0  11427-3 0  9997
2 00733  99.1226  82.3655 0031971 257.1554 102.6057 14.34020282238340
SL-3 R/B                
1 00877U 64053B   26069.10250868  .00000348  00000+0  91452-4 0  9992
2 00877  65.0787 330.0273 0079798 292.0936  67.1705 14.61368807266853
SL-8 R/B                
1 02802U 67045B   26069.19784568  .00000512  00000+0  14902-3 0  9991
2 02802  74.0142 347.1402 0064294 353.2554   6.7731 14.45623567 89098
SL-8 R/B                
1 03230U 68040B   26069.10898384  .00003285  00000+0  24400-3 0  9990
2 03230  74.0319 312.8379 0023845 136.4779 223.8297 15.03262822 90076
OAO 2                   
1 03597U 68110A   26068.57611291  .00000362  00000+0  10274-3 0  9991
2 03597  34.9927 265.8579 0005852 204.0746 155.9671 14.47308072 19083
ISIS 1                  
1 03669U 69009A   26069.25093214  .00000182  00000+0  11269-3 0  9999
2 03669  88.4542 155.2475 1707775  88.0293 291.4510 11.30414483348590
SERT 2                  
1 04327U 70009A   26069.30656278  .00000022  00000+0  86841-4 0  9996
2 04327  99.2757  12.3663 0005063 154.2893 359.5173 13.58729958779973
SL-3 R/B                
1 05118U 71028B   26069.23315412  .00048670  00000+0  57101-3 0  9998
2 05118  81.2358  51.3580 0013339 282.9695  77.0068 15.61176237988750
ASTEX 1                 
1 05560U 71089A   26069.23613504  .00000594  00000+0  15096-3 0  9999
2 05560  92.7121 151.9365 0017818  84.2950 276.0287 14.50770502862383
SL-8 R/B                
1 05730U 71119B   26069.21406741  .00014340  00000+0  74670-3 0  9990
2 05730  73.8873 174.7387 0548564 141.2629 222.9234 14.37875877655565
OAO 3 (COPERNICUS)      
1 06153U 72065A   26069.02570882  .00000458  00000+0  98288-4 0  9995
2 06153  35.0057 295.4022 0006471 170.0360 335.9029 14.59998509846240
ATLAS CENTAUR R/B       
1 06155U 72065B   26069.23403056  .00001560  00000+0  21564-3 0  9995
2 06155  35.0017 302.5644 0033465  13.4168 346.7416 14.77688627841340
SL-8 R/B                
1 08459U 75112B   26069.26823631  .00000331  00000+0  11745-3 0  9993
2 08459  74.0630  17.8474 0014418 110.8997 249.3702 14.38204202631959
SL-3 R/B                
1 10114U 77057B   26069.23695816  .00016563  00000+0  34668-3 0  9996
2 10114  97.5778 241.1817 0006162 283.0084  77.0476 15.45512763668411
SEASAT 1                
1 10967U 78064A   26069.11866629  .00000314  00000+0  12632-3 0  9994
2 10967 108.0108 126.4000 0002328 285.7450  74.3439 14.46160702506576
SL-14 R/B               
1 11267U 79011B   26069.11704600  .00000697  00000+0  66182-4 0  9995
2 11267  82.5208  96.1654 0017387  59.2501 301.0428 14.91908671528844
