[{"OBJECT_NAME":"ATLAS CENTAUR 2","OBJECT_ID":"1963-047A","EPOCH":"2026-03-10T07:48:14.653440","MEAN_MOTION":14.12069936,"ECCENTRICITY":0.05477447,"INCLINATION":30.351,"RA_OF_ASC_NODE":192.0905,"ARG_OF_PERICENTER":85.8862,"MEAN_ANOMALY":280.4124,"EPHEMERIS_TYPE":0,"CLASSIFICATION_TYPE":"U","NORAD_CAT_ID":694,"ELEMENT_SET_NO":999,"REV_AT_EPOCH":13171,"BSTAR":0.00023363824,"MEAN_MOTION_DOT":1.991e-5,"MEAN_MOTION_DDOT":0},{"OBJECT_NAME":"THOR AGENA D R/B","OBJECT_ID":"1964-002A","EPOCH":"2026-03-10T00:15:13.652352","MEAN_MOTION":14.34020282,"ECCENTRICITY":0.00319719,"INCLINATION":99.1226,"RA_OF_ASC_NODE":82.3655,"ARG_OF_PERICENTER":257.1554,"MEAN_ANOMALY":102.6057,"EPHEMERIS_TYPE":0,"CLASSIFICATION_TYPE":"U","NORAD_CAT_ID":733,"ELEMENT_SET_NO":999,"REV_AT_EPOCH":23834,"BSTAR":0.00011427386,"MEAN_MOTION_DOT":2.72e-6,"MEAN_MOTION_DDOT":0},{"OBJECT_NAME":"SL-3 R/B","OBJECT_ID":"1964-053B","EPOCH":"2026-03-10T02:27:36.749952","MEAN_MOTION":14.61368807,"ECCENTRICITY":0.00797985,"INCLINATION":65.0787,"RA_OF_ASC_NODE":330.0273,"ARG_OF_PERICENTER":292.0936,"MEAN_ANOMALY":67.1705,"EPHEMERIS_TYPE":0,"CLASSIFICATION_TYPE":"U","NORAD_CAT_ID":877,"ELEMENT_SET_NO":999,"REV_AT_EPOCH":26685,"BSTAR":9.1452041e-5,"MEAN_MOTION_DOT":3.48e-6,"MEAN_MOTION_DDOT":0},{"OBJECT_NAME":"SL-8 R/B","OBJECT_ID":"1967-045B","EPOCH":"2026-03-10T04:44:53.866752","MEAN_MOTION":14.45623567,"ECCENTRICITY":0.00642946,"INCLINATION":74.0142,"RA_OF_ASC_NODE":347.1402,"ARG_OF_PERICENTER":353.2554,"MEAN_ANOMALY":6.7731,"EPHEMERIS_TYPE":0,"CLASSIFICATION_TYPE":"U","NORAD_CAT_ID":2802,"ELEMENT_SET_NO":999,"REV_AT_EPOCH":8909,"BSTAR":0.000149023,"MEAN_MOTION_DOT":5.12e-6,"MEAN_MOTION_DDOT":0},{"OBJECT_NAME":"SL-8 R/B","OBJECT_ID":"1968-040B","EPOCH":"2026-03-10T02:36:56.203776","MEAN_MOTION":15.03262822,"ECCENTRICITY":0.00238458,"INCLINATION":74.0319,"RA_OF_ASC_NODE":312.8379,"ARG_OF_PERICENTER":136.4779,"MEAN_ANOMALY":223.8297,"EPHEMERIS_TYPE":0,"CLASSIFICATION_TYPE":"U","NORAD_CAT_ID":3230,"ELEMENT_SET_NO":999,"REV_AT_EPOCH":9007,"BSTAR":0.00024399913,"MEAN_MOTION_DOT":3.285e-5,"MEAN_MOTION_DDOT":0},{"OBJECT_NAME":"OAO 2","OBJECT_ID":"1968-110A","EPOCH":"2026-03-09T13:49:36.155424","MEAN_MOTION":14.47308072,"ECCENTRICITY":0.0005852,"INCLINATION":34.9927,"RA_OF_ASC_NODE":265.8579,"ARG_OF_PERICENTER":204.0746,"MEAN_ANOMALY":155.9671,"EPHEMERIS_TYPE":0,"CLASSIFICATION_TYPE":"U","NORAD_CAT_ID":3597,"ELEMENT_SET_NO":999,"REV_AT_EPOCH":1908,"BSTAR":0.00010274,"MEAN_MOTION_DOT":3.62e-6,"MEAN_MOTION_DDOT":0},{"OBJECT_NAME":"ISIS 1","OBJECT_ID":"1969-009A","EPOCH":"2026-03-10T06:01:20.536896","MEAN_MOTION":11.30414483,"ECCENTRICITY":0.17077756,"INCLINATION":88.4542,"RA_OF_ASC_NODE":155.2475,"ARG_OF_PERICENTER":88.0293,"MEAN_ANOMALY":291.451,"EPHEMERIS_TYPE":0,"CLASSIFICATION_TYPE":"U","NORAD_CAT_ID":3669,"ELEMENT_SET_NO":999,"REV_AT_EPOCH":34859,"BSTAR":0.00011269495,"MEAN_MOTION_DOT":1.82e-6,"MEAN_MOTION_DDOT":0},{"OBJECT_NAME":"SERT 2","OBJECT_ID":"1970-009A","EPOCH":"2026-03-10T07:21:27.024192","MEAN_MOTION":13.58729958,"ECCENTRICITY":0.00050631,"INCLINATION":99.2757,"RA_OF_ASC_NODE":12.3663,"ARG_OF_PERICENTER":154.2893,"MEAN_ANOMALY":359.5173,"EPHEMERIS_TYPE":0,"CLASSIFICATION_TYPE":"U","NORAD_CAT_ID":4327,"ELEMENT_SET_NO":999,"REV_AT_EPOCH":77997,"BSTAR":8.6841113e-5,"MEAN_MOTION_DOT":2.2e-7,"MEAN_MOTION_DDOT":0},{"OBJECT_NAME":"SL-3 R/B","OBJECT_ID":"1971-028B","EPOCH":"2026-03-10T05:35:44.515968","MEAN_MOTION":15.61176237,"ECCENTRICITY":0.00133391,"INCLINATION":81.2358,"RA_OF_ASC_NODE":51.358,"ARG_OF_PERICENTER":282.9695,"MEAN_ANOMALY":77.0068,"EPHEMERIS_TYPE":0,"CLASSIFICATION_TYPE":"U","NORAD_CAT_ID":5118,"ELEMENT_SET_NO":999,"REV_AT_EPOCH":98875,"BSTAR":0.0005710115,"MEAN_MOTION_DOT":0.0004867,"MEAN_MOTION_DDOT":0},{"OBJECT_NAME":"ASTEX 1","OBJECT_ID":"1971-089A","EPOCH":"2026-03-10T05:40:02.067456","MEAN_MOTION":14.50770502,"ECCENTRICITY":0.00178181,"INCLINATION":92.7121,"RA_OF_ASC_NODE":151.9365,"ARG_OF_PERICENTER":84.295,"MEAN_ANOMALY":276.0287,"EPHEMERIS_TYPE":0,"CLASSIFICATION_TYPE":"U","NORAD_CAT_ID":5560,"ELEMENT_SET_NO":999,"REV_AT_EPOCH":86238,"BSTAR":0.0001509553,"MEAN_MOTION_DOT":5.94e-6,"MEAN_MOTION_DDOT":0},{"OBJECT_NAME":"SL-8 R/B","OBJECT_ID":"1971-119B","EPOCH":"2026-03-10T05:08:15.424224","MEAN_MOTION":14.37875877,"ECCENTRICITY":0.05485647,"INCLINATION":73.8873,"RA_OF_ASC_NODE":174.7387,"ARG_OF_PERICENTER":141.2629,"MEAN_ANOMALY":222.9234,"EPHEMERIS_TYPE":0,"CLASSIFICATION_TYPE":"U","NORAD_CAT_ID":5730,"ELEMENT_SET_NO":999,"REV_AT_EPOCH":65556,"BSTAR":0.00074670206,"MEAN_MOTION_DOT":0.0001434,"MEAN_MOTION_DDOT":0},{"OBJECT_NAME":"OAO 3 (COPERNICUS)","OBJECT_ID":"1972-065A","EPOCH":"2026-03-10T00:37:01.242048","MEAN_MOTION":14.59998509,"ECCENTRICITY":0.0006471,"INCLINATION":35.0057,"RA_OF_ASC_NODE":295.4022,"ARG_OF_PERICENTER":170.036,"MEAN_ANOMALY":335.9029,"EPHEMERIS_TYPE":0,"CLASSIFICATION_TYPE":"U","NORAD_CAT_ID":6153,"ELEMENT_SET_NO":999,"REV_AT_EPOCH":84624,"BSTAR":9.8288493e-5,"MEAN_MOTION_DOT":4.58e-6,"MEAN_MOTION_DDOT":0},{"OBJECT_NAME":"ATLAS CENTAUR R/B","OBJECT_ID":"1972-065B","EPOCH":"2026-03-10T05:37:00.240384","MEAN_MOTION":14.77688627,"ECCENTRICITY":0.00334656,"INCLINATION":35.0017,"RA_OF_ASC_NODE":302.5644,"ARG_OF_PERICENTER":13.4168,"MEAN_ANOMALY":346.7416,"EPHEMERIS_TYPE":0,"CLASSIFICATION_TYPE":"U","NORAD_CAT_ID":6155,"ELEMENT_SET_NO":999,"REV_AT_EPOCH":84134,"BSTAR":0.00021564493,"MEAN_MOTION_DOT":1.56e-5,"MEAN_MOTION_DDOT":0},{"OBJECT_NAME":"SL-8 R/B","OBJECT_ID":"1975-112B","EPOCH":"2026-03-10T06:26:15.617184","MEAN_MOTION":14.38204202,"ECCENTRICITY":0.00144187,"INCLINATION":74.063,"RA_OF_ASC_NODE":17.8474,"ARG_OF_PERICENTER":110.8997,"MEAN_ANOMALY":249.3702,"EPHEMERIS_TYPE":0,"CLASSIFICATION_TYPE":"U","NORAD_CAT_ID":8459,"ELEMENT_SET_NO":999,"REV_AT_EPOCH":63195,"BSTAR":0.00011745278,"MEAN_MOTION_DOT":3.31e-6,"MEAN_MOTION_DDOT":0},{"OBJECT_NAME":"SL-3 R/B","OBJECT_ID":"1977-057B","EPOCH":"2026-03-10T05:41:13.185024","MEAN_MOTION":15.45512763,"ECCENTRICITY":0.00061629,"INCLINATION":97.5778,"RA_OF_ASC_NODE":241.1817,"ARG_OF_PERICENTER":283.0084,"MEAN_ANOMALY":77.0476,"EPHEMERIS_TYPE":0,"CLASSIFICATION_TYPE":"U","NORAD_CAT_ID":10114,"ELEMENT_SET_NO":999,"REV_AT_EPOCH":66841,"BSTAR":0.00034668145,"MEAN_MOTION_DOT":0.00016563,"MEAN_MOTION_DDOT":0},{"OBJECT_NAME":"SEASAT 1","OBJECT_ID":"1978-064A","EPOCH":"2026-03-10T02:50:52.767456","MEAN_MOTION":14.46160702,"ECCENTRICITY":0.00023284,"INCLINATION":108.0108,"RA_OF_ASC_NODE":126.4,"ARG_OF_PERICENTER":285.745,"MEAN_ANOMALY":74.3439,"EPHEMERIS_TYPE":0,"CLASSIFICATION_TYPE":"U","NORAD_CAT_ID":10967,"ELEMENT_SET_NO":999,"REV_AT_EPOCH":50657,"BSTAR":0.00012631613,"MEAN_MOTION_DOT":3.14e-6,"MEAN_MOTION_DDOT":0},{"OBJECT_NAME":"SL-14 R/B","OBJECT_ID":"1979-011B","EPOCH":"2026-03-10T02:48:32.774400","MEAN_MOTION":14.91908671,"ECCENTRICITY":0.00173871,"INCLINATION":82.5208,"RA_OF_ASC_NODE":96.1654,"ARG_OF_PERICENTER":59.2501,"MEAN_ANOMALY":301.0428,"EPHEMERIS_TYPE":0,"CLASSIFICATION_TYPE":"U","NORAD_CAT_ID":11267,"ELEMENT_SET_NO":999,"REV_AT_EPOCH":52884,"BSTAR":6.6181748e-5,"MEAN_MOTION_DOT":6.97e-6,"MEAN_MOTION_DDOT":0}]
